[
  {
    "OBJECT_NAME": "CONNECTA IOT-13",
    "OBJECT_ID": "2026-004AP",
    "EPOCH": "2026-06-11T22:19:11.956000",
    "MEAN_MOTION": 15.17931776,
    "ECCENTRICITY": 0.0009111,
    "INCLINATION": 97.4557,
    "RA_OF_ASC_NODE": 162.0082,
    "ARG_OF_PERICENTER": 20.5275,
    "MEAN_ANOMALY": 339.6323,
    "EPHEMERIS_TYPE": 0,
    "CLASSIFICATION_TYPE": "U",
    "NORAD_CAT_ID": 67400,
    "ELEMENT_SET_NO": 999,
    "REV_AT_EPOCH": 2295,
    "BSTAR": 0.00014007,
    "MEAN_MOTION_DOT": 0.00002777,
    "MEAN_MOTION_DDOT": 0
  }
]
