CONNECTA IOT-13         
1 67400U 26004AP  26162.92999949  .00002777  00000+0  14007-3 0  9993
2 67400  97.4557 162.0082 0009111  20.5275 339.6323 15.17931776 22952
